C/2020 H5 (Robinson),e,70.2165,210.6062,326.2644,6760,0.0000018,0.99861928,0.0000,12/10.0455/2020,2000,g  5.0,4.0
# From MPEC 2024-JU4
C/2020 H6 (ATLAS),e,79.9976,213.6765,20.1775,1821,0.0000127,0.99742134,0.0000,09/29.4072/2021,2000,g  8.0,3.2
# From MPEC 2023-HN7
C/2020 H11 (PANSTARRS-Lemmon),e,151.3696,303.0582,91.3518,8381,0.0000013,0.99909065,0.0000,09/11.8633/2020,2000,g  8.5,4.0
# From MPEC 2023-KD6
C/2020 J1 (SONEAR),e,142.3091,226.5686,341.5399,5283,0.0000026,0.99936703,0.0000,04/17.7347/2021,2000,g  8.5,3.2
# From MPEC 2025-WD0
C/2020 K1 (PANSTARRS),e,89.6705,94.3673,213.9613,1870,0.0000122,0.99835610,0.0000,05/08.5197/2023,2000,g  5.5,4.0
# From MPEC 2021-N06
C/2020 K2 (PANSTARRS),h,08/03.6826/2020,90.9855,288.4366,67.2946,1.000255,8.880226,2000,6.5,4.0
# From MPEC 2023-N01
C/2020 K6 (Rankin),h,09/14.2611/2021,103.6273,291.6031,44.2555,1.001590,5.865245,2000,8.0,4.0
# From MPEC 2023-A50
C/2020 K7 (PANSTARRS),e,32.0442,286.1351,358.0330,93.98858,0.0010817,0.93206825,2.4276,12/16.0/2025,2000,g  8.0,4.0
# From MPEC 2021-BE3
P/2020 K9 (Lemmon-PANSTARRS),e,23.1864,166.3066,197.0774,4.208162,0.1141735,0.31989633,202.0357,12/16.0/2025,2000,g 12.5,4.0
# From MPEC 2023-N01
A/2020 M4,e,160.0965,348.6085,104.4447,7897,0.0000014,0.99924791,0.0000,11/22.2557/2020,2000,g 14.5,2.0
# From MPEC 2024-NE4
P/2020 MK4 (PANSTARRS),e,6.7808,0.6565,94.3006,6.225569,0.0634506,0.01551662,328.3059,12/16.0/2025,2000,g  8.0,4.0
# From MPEC 2023-FK0
C/2020 M5 (ATLAS),h,08/19.6426/2021,93.1631,351.9951,126.2474,1.000071,3.000432,2000,9.0,4.0
# From MPEC 2024-JU4
C/2020 O2 (Amaral),e,71.7643,256.7853,10.1411,6357,0.0000019,0.99923636,0.0000,08/26.9891/2021,2000,g  8.0,3.2
# From MPEC 2023-C45
P/2020 O3 (PANSTARRS),e,8.4444,266.8162,81.0794,4.646031,0.0984194,0.10240019,175.9207,12/16.0/2025,2000,g 12.0,4.0
# From MPEC 2024-JU4
C/2020 P3 (ATLAS),h,04/23.1555/2021,61.8405,19.4887,82.3669,1.003902,6.817581,2000,6.0,4.0
# From MPEC 2020-QN1
C/2020 P4-B (SOHO),h,08/07.8114/2020,26.9137,171.7402,173.3903,1.000558,0.102055,2000,0.0,6.0
# From MPEC 2020-QN1
C/2020 P4-C (SOHO),h,08/05.4488/2020,37.2721,165.2510,116.0037,1.013276,0.089623,2000,-1.6,6.0
# From MPEC 2022-PB4
C/2020 PV6 (PANSTARRS),e,128.1390,329.1205,71.2594,41.51383,0.0036848,0.94481977,5.6837,12/16.0/2025,2000,g 10.0,4.0
# From MPEC 2023-CD7
C/2020 Q2 (PANSTARRS),e,3.3363,179.8398,118.1414,10.59474,0.0285804,0.48857273,61.5396,12/16.0/2025,2000,g 12.0,3.2
# From MPEC 2024-F34
C/2020 R2 (PANSTARRS),e,53.2075,195.1398,211.8924,427.8667,0.0001114,0.98901309,0.0000,02/25.2696/2022,2000,g  9.0,4.0
# From MPEC 2023-C45
P/2020 R5 (PANSTARRS),e,11.4394,272.9377,82.7341,4.994244,0.0883079,0.31286265,179.2275,12/16.0/2025,2000,g  9.5,6.0
# From MPEC 2024-PC5
C/2020 R7 (ATLAS),e,114.9035,268.3080,347.7287,4988,0.0000028,0.99940853,0.0000,09/15.9328/2022,2000,g  7.0,3.2
# From MPEC 2024-N80
C/2020 S4 (PANSTARRS),h,02/09.7312/2023,20.5715,117.6765,21.0855,1.003023,3.371187,2000,8.5,3.2
# From MPEC 2021-BE3
P/2020 S5 (PANSTARRS),e,12.3398,316.0120,53.2658,4.059278,0.1205121,0.33709137,235.8058,12/16.0/2025,2000,g 14.5,4.0
# From MPEC 2022-TD3
C/2020 T2 (Palomar),e,27.8417,83.0164,150.3226,265.0926,0.0002284,0.99226715,0.0000,07/10.6310/2021,2000,g 11.0,3.2
# From MPEC 2024-TD8
C/2020 U4 (PANSTARRS),h,04/10.2769/2022,167.0037,120.4051,70.1940,1.001563,5.362833,2000,7.0,4.0
# From MPEC 2024-GJ3
C/2020 U5 (PANSTARRS),e,97.3161,107.3132,75.4700,33127,0.0000002,0.99988660,0.0000,04/28.5936/2022,2000,g  8.0,4.0
# From MPC188409
C/2020 V2 (ZTF),h,05/08.5874/2023,131.6096,212.4191,162.4833,1.001180,2.229708,2000,4.9,4.0
# From MPEC 2023-D72
P/2020 V3 (PANSTARRS),e,23.0158,198.2719,249.9001,8.411613,0.0404004,0.25782182,71.2359,12/16.0/2025,2000,g  8.3,4.0
# From MPC188409
P/2020 V4 (Rankin),e,14.2331,203.4882,257.3138,9.403122,0.0341819,0.45161433,54.9928,12/16.0/2025,2000,g  9.0,4.0
# From MPEC 2021-BE3
P/2020 W1 (Rankin),e,10.7763,124.3828,265.4180,7.227103,0.0507292,0.26513023,105.3308,12/16.0/2025,2000,g 10.0,4.0
# From MPEC 2024-PC5
P/2020 WJ5 (Lemmon),e,22.2890,177.7495,338.1293,6.015842,0.0667974,0.17227679,108.8003,12/16.0/2025,2000,g  8.5,4.0
# From MPEC 2024-F34
P/2020 X1 (ATLAS),e,31.6874,55.9922,323.5213,4.537165,0.1019829,0.36410886,201.4792,12/16.0/2025,2000,g 13.0,4.0
# From MPEC 2024-A43
C/2020 X2 (ATLAS),e,18.1871,105.3512,347.6162,16.55773,0.0146286,0.76838137,27.1317,12/16.0/2025,2000,g 10.6,4.0
# From MPEC 2021-S45
C/2020 X4 (Leonard),e,80.6671,161.9726,140.2687,40.53554,0.0038190,0.87115913,7.0908,12/16.0/2025,2000,g  9.0,4.0
# From MPC181179
C/2020 Y2 (ATLAS),e,101.2356,26.5472,266.4180,1211,0.0000234,0.99740148,0.0000,06/17.6250/2022,2000,g  6.5,4.0
# From MPC181179
C/2021 A1 (Leonard),h,01/04.0510/2022,132.7394,255.9040,225.1196,1.000273,0.614602,2000,8.5,4.0
# From MPC181180
P/2021 A5 (PANSTARRS),e,18.1848,328.6826,62.1471,3.052127,0.1848417,0.14102638,342.7409,12/16.0/2025,2000,g 15.0,4.0
# From MPEC 2024-P23
C/2021 A6 (PANSTARRS),e,75.5568,164.0103,351.6454,16526,0.0000005,0.99952039,0.0000,05/03.3146/2021,2000,g  7.0,4.0
# From MPEC 2022-M88
C/2021 A7 (NEOWISE),e,78.2386,154.3772,356.0187,2008,0.0000110,0.99902105,0.0000,07/15.1999/2021,2000,g 10.0,4.0
# From MPEC 2025-X35
C/2021 A9 (PANSTARRS),e,158.0178,314.8512,211.6668,43729,0.0000001,0.99982242,0.0000,12/04.3712/2023,2000,g  6.0,4.0
# From MPEC 2021-U31
P/2021 C2 (PANSTARRS),e,21.9350,66.4534,78.7508,9.549457,0.0333992,0.48856634,58.6108,12/16.0/2025,2000,g 12.0,4.0
# From MPEC 2025-UQ3
C/2021 C4 (ATLAS),e,132.8252,194.2080,319.9910,2980,0.0000061,0.99849256,0.0000,01/15.8249/2021,2000,g  9.0,4.0
# From MPEC 2024-N80
C/2021 C5 (PANSTARRS),e,50.8065,323.6748,270.8720,1685,0.0000143,0.99807747,0.0000,02/11.0093/2023,2000,g  9.0,4.0
# From MPEC 2023-J29
C/2021 D2 (ZTF),h,02/03.4542/2022,83.7659,305.6165,125.0903,1.001392,2.951564,2000,9.0,4.0
# From MPEC 2022-UY9
A/2021 E2,e,167.4967,190.7215,342.1906,197.1247,0.0003561,0.98841313,0.0000,12/08.4415/2020,2000,g 15.0,2.0
# From MPEC 2024-GJ3
C/2021 E3 (ZTF),e,112.5211,104.4839,228.7851,4233,0.0000036,0.99958001,0.0000,06/10.7495/2022,2000,g  8.5,4.0
# From MPEC 2024-N80
A/2021 E4,e,116.3936,171.1310,48.3010,507.7689,0.0000861,0.99077991,0.0000,04/24.8554/2022,2000,g 13.5,2.0
# From MPEC 2025-VD2
C/2021 G2 (ATLAS),h,09/09.1407/2024,48.4617,221.0911,343.2657,1.000947,4.982092,2000,5.5,4.0
# From MPEC 2022-X67
C/2021 G3 (PANSTARRS),e,102.8765,147.3307,10.6184,10863,0.0000009,0.99952273,0.0000,10/17.9284/2021,2000,g 10.5,4.0
# From MPEC 2024-F34
P/2021 J3 (ATLAS),e,14.5122,110.9458,125.5653,8.881764,0.0372353,0.44971353,87.9134,12/16.0/2025,2000,g  7.0,4.0
# From MPEC 2022-O08
C/2021 K1 (ATLAS),e,16.2691,140.9297,184.2015,12.59048,0.0220618,0.80121149,37.2693,12/16.0/2025,2000,g 11.0,4.0
# From MPEC 2022-O01
C/2021 K2 (MASTER),h,09/09.0288/2021,100.8720,282.3404,343.2409,1.000190,5.460843,2000,8.0,4.0
# From MPEC 2022-L66
C/2021 K3 (Catalina),h,02/03.4200/2022,134.7804,114.6149,181.9834,1.003905,5.225200,2000,10.0,4.0
# From MPEC 2024-H50
C/2021 L3 (Borisov),h,02/14.9803/2022,78.5260,345.0236,91.6583,1.004330,8.461340,2000,6.0,4.0
# From MPEC 2022-TA0
P/2021 N1 (ZTF),e,11.4853,301.1323,21.2178,2.980308,0.1915634,0.67572813,317.1210,12/16.0/2025,2000,g 19.0,4.0
# From MPEC 2024-GJ3
P/2021 N2 (Fuls),e,13.0589,221.7509,177.6469,6.947730,0.0538195,0.45187803,80.3607,12/16.0/2025,2000,g  9.5,4.0
# From MPEC 2022-YB4
C/2021 N3 (PANSTARRS),e,26.7693,337.5381,304.5428,138.8124,0.0006026,0.95887382,1.1737,12/16.0/2025,2000,g  8.5,4.0
# From MPEC 2024-F34
C/2021 P1 (PANSTARRS),e,51.6111,359.7224,40.5302,2450,0.0000081,0.99821190,0.0000,06/02.4146/2022,2000,g 11.0,4.0
# From MPC185656
C/2021 P2 (PANSTARRS),e,150.0486,32.1001,76.7015,13289,0.0000006,0.99961874,0.0000,01/23.0301/2023,2000,g  9.0,4.0
# From MPEC 2024-GJ3
P/2021 P3 (PANSTARRS),e,27.1625,358.2451,333.9646,4.411869,0.1063580,0.33840450,176.9087,12/16.0/2025,2000,g 14.0,4.0
# From MPEC 2023-A50
C/2021 P4 (ATLAS),e,56.4013,347.9806,175.8213,298.5059,0.0001911,0.99638743,0.0000,07/30.5143/2022,2000,g  9.5,4.0
# From MPEC 2023-FK0
C/2021 Q3 (ATLAS),e,77.7092,307.9058,114.1584,74.77154,0.0015244,0.93031126,2.1649,12/16.0/2025,2000,g  8.0,4.0
# From MPC188409
C/2021 Q4 (Fuls),h,06/10.4251/2023,71.5498,183.3346,147.0210,1.000703,7.563888,2000,6.0,4.0
# From MPC181180
P/2021 Q5 (ATLAS),e,10.7384,239.7335,180.9701,3.284258,0.1655954,0.62422102,259.5555,12/16.0/2025,2000,g 15.0,4.0
# From MPC188409
C/2021 Q6 (PANSTARRS),h,03/25.3015/2024,161.8270,133.5735,141.0637,1.003308,8.707546,2000,6.0,4.0
# From MPEC 2023-FK0
C/2021 QM45 (PANSTARRS),e,22.7899,354.5926,72.9537,413.1529,0.0001174,0.99327090,0.0000,08/13.6030/2022,2000,g 11.0,4.0
# From MPEC 2022-X67
P/2021 R1 (PANSTARRS),e,5.5388,143.0638,219.9766,8.239278,0.0416745,0.40691816,61.2969,12/16.0/2025,2000,g 11.0,4.0
# From MPEC 2022-X67
C/2021 R2 (PANSTARRS),e,134.4793,16.3542,32.5614,17468,0.0000004,0.99958119,0.0000,12/28.5997/2021,2000,g  7.5,4.0
# From MPEC 2021-W31
P/2021 R3 (PANSTARRS),e,19.9447,304.1976,2.5707,3.768220,0.1347410,0.33202428,224.4756,12/16.0/2025,2000,g 16.0,4.0
# From MPEC 2024-JU4
P/2021 R5 (Rankin),e,7.8530,219.9672,167.6122,4.798852,0.0937558,0.30566802,134.4498,12/16.0/2025,2000,g 12.0,4.0
# From MPEC 2022-X67
C/2021 R7 (PANSTARRS),e,158.8796,170.2187,140.4286,1071,0.0000281,0.99471840,0.0000,04/17.6983/2021,2000,g 10.5,4.0
# From MPEC 2021-Y10
P/2021 R8 (Sheppard),e,2.2026,167.0578,190.8052,3.020585,0.1877446,0.29243029,287.5679,12/16.0/2025,2000,g 18.5,4.0
# From MPEC 2023-J29
C/2021 S1 (ATLAS),h,03/02.1432/2022,52.0342,299.8507,148.3429,1.002962,6.127758,2000,7.0,4.0
# From MPEC 2025-XC7
C/2021 S3 (PANSTARRS),e,58.5521,215.5923,6.8302,18128,0.0000004,0.99992722,0.0000,02/14.6605/2024,2000,g  5.5,4.0
# From MPC184409
C/2021 S4 (Tsuchinshan),e,17.4815,5.4397,73.0834,153.4540,0.0005185,0.95638042,0.3692,12/16.0/2025,2000,g  6.5,4.0
# From MPC184409
